{"type": "FeatureCollection", "features": [{"type": "Feature", "geometry": {"type": "LineString", "coordinates": [[141.44530012503773, 38.76678898199995], [141.44525143342221, 38.766723248319], [141.44514187728728, 38.76666481838037], [141.44502745199082, 38.76667455670347], [141.44488868088658, 38.7667110754151], [141.4447718210093, 38.766764636192185], [141.4446330499051, 38.76686932316555], [141.44447723673542, 38.76698861762359], [141.44419969452693, 38.7671712111818], [141.44413883000752, 38.76727833273594], [141.44411935336132, 38.767448753390276], [141.44407553090736, 38.76763378152927], [141.4440317084534, 38.76774820682575], [141.4438758952837, 38.76788697792997], [141.4436519138523, 38.76792836580318], [141.4434693202941, 38.767928365803165], [141.44337924080537, 38.76783828631446], [141.44337924080537, 38.76766786566013], [141.44345227822868, 38.7674974450058], [141.44356426894436, 38.76737084680544], [141.44370547462938, 38.76730754770525], [141.44379311953733, 38.767183384085676], [141.44383207282974, 38.767095739177755], [141.44387832986448, 38.7669569680735], [141.44396597477242, 38.76686688858478], [141.44411204961898, 38.76675489786908], [141.4441826524615, 38.76655526224544], [141.44417534871917, 38.76639214533345]]}, "properties": {"id": 21}}, {"type": "Feature", "geometry": {"type": "LineString", "coordinates": [[141.44356426894436, 38.76737084680544], [141.4434498436478, 38.76742166867912], [141.4433585468687, 38.767489836940854], [141.4432453388626, 38.767549484169884], [141.44315647666429, 38.76759695849501], [141.4429897078811, 38.76761521785083], [141.4428399811634, 38.76761400056045], [141.44272920773807, 38.76759208933346], [141.44261478244158, 38.76751905191018], [141.44254417959908, 38.76741679951758], [141.4425027917259, 38.76729993964031], [141.44251496462977, 38.76720377369966]]}, "properties": {"id": 22}}, {"type": "Feature", "geometry": {"type": "LineString", "coordinates": [[141.4441826524615, 38.76655526224544], [141.44400492806477, 38.766771635611896], [141.44374321063134, 38.76690188568343], [141.4433512431264, 38.76711247692054], [141.44318934350477, 38.76719768724771], [141.44302500930237, 38.767253682605585], [141.44283632929222, 38.76722690221704], [141.44268903715528, 38.767158733955306], [141.44261113057044, 38.76709543485513], [141.44243584075457, 38.7670370049165], [141.44228002758487, 38.767061350724276], [141.44218264435384, 38.767122215243674], [141.44210960693056, 38.76721716389393], [141.44206091531504, 38.76745331822921], [141.44205117699192, 38.767801463280215], [141.44201952744186, 38.76799866432306], [141.4419513591801, 38.768117958781104], [141.44177850394502, 38.76812282794264], [141.44164947116388, 38.768081440069466], [141.44150583089808, 38.76801083722695], [141.44141088224782, 38.76794753812677], [141.44130376069367, 38.76786719696116], [141.4411576858471, 38.76781607076485], [141.44104082596985, 38.767881804445814], [141.4410164801621, 38.767969449353764], [141.44103108764673, 38.76806439800402], [141.44099213435433, 38.768108220458], [141.4408704053155, 38.76808874381179], [141.44081440995765, 38.767969449353764], [141.4408192791192, 38.76787206612271], [141.44079249873067, 38.76779415953787], [141.44081440995765, 38.76773572959925], [141.44086553615395, 38.767596958495005], [141.44100187267742, 38.76750931358706], [141.44115038210478, 38.76747279487543], [141.44126480740124, 38.767436276163785], [141.4413694943746, 38.76737541164438], [141.44156182625593, 38.767170906859185], [141.44169329361785, 38.76701265910872], [141.4418929292415, 38.76686171510062], [141.4420560461535, 38.76679111225812], [141.44232385003886, 38.76674972438492], [141.44256974269726, 38.76663529908844], [141.44267199508985, 38.76657930373059], [141.44292032232903, 38.76648435508032], [141.44297875226766, 38.766408883076274], [141.44313456543733, 38.766318803587545], [141.4432709019608, 38.76630663068368], [141.4433828926765, 38.76633097649142], [141.44343158429203, 38.76642105598015], [141.4434924488114, 38.76656469624594], [141.44348271048833, 38.76674485522335], [141.44344619177667, 38.76693475252391], [141.4434023693227, 38.767039439497275], [141.44333123391561, 38.76712274780824]]}, "properties": {"id": 23}}, {"type": "Feature", "geometry": {"type": "LineString", "coordinates": [[141.44441127481267, 38.7672691269774], [141.44460664992, 38.767316601302554], [141.44484036967455, 38.767387812790275], [141.44492618864695, 38.767387812790275]]}, "properties": {"id": 24}}, {"type": "Feature", "geometry": {"type": "LineString", "coordinates": [[141.44639199598947, 38.766570874456875], [141.44654445174768, 38.766596441018905], [141.44674630117362, 38.76661116449448], [141.4468110638619, 38.76661647225412], [141.44684342100877, 38.76651318964621], [141.44680325042594, 38.76643284848058], [141.44654761944437, 38.76614069878737], [141.44641250021127, 38.765965408971454], [141.4462627734935, 38.7657280373457], [141.446186084199, 38.76554544378745], [141.44613130613155, 38.76539936894083], [141.44607287619291, 38.76530442029054], [141.44597427567143, 38.765286160934714], [141.44559813294143, 38.76530442029054], [141.445389976285, 38.765227730996074]]}, "properties": {"id": 31}}, {"type": "Feature", "geometry": {"type": "LineString", "coordinates": [[141.44684342100877, 38.76651318964621], [141.44699314772652, 38.7664730190634], [141.44706253327865, 38.76634520357261], [141.44707348889216, 38.766261210535816], [141.44699679959768, 38.766129743173884], [141.44691645843207, 38.766012883296575], [141.44680325042594, 38.76590697903279], [141.44674847235845, 38.76585220096532], [141.44674847235845, 38.76570247424754], [141.44681420603942, 38.765669607407055], [141.4468397691376, 38.76553814004511], [141.44675212422962, 38.76542858391016], [141.44659144189836, 38.76531537590404], [141.44649649324805, 38.76521312351141], [141.44638693711312, 38.76505609305131], [141.44633215904562, 38.76494288504519], [141.4462116472972, 38.764847936394894], [141.44583550456716, 38.7647529877446], [141.4456857778494, 38.76472377277528], [141.44541553938316, 38.76457039418636], [141.44529502763473, 38.76456309044401], [141.44521833834025, 38.76458865354216], [141.4452256420826, 38.76469455780596], [141.44541919125433, 38.764822373296724], [141.44556161422977, 38.764899062591205], [141.4459998387696, 38.76504878930898], [141.44606557245058, 38.76512913047461], [141.44608017993522, 38.76520216789791], [141.44603635748126, 38.765245990351886], [141.44597427567143, 38.765286160934714]]}, "properties": {"id": 32}}, {"type": "Feature", "geometry": {"type": "LineString", "coordinates": [[141.44521286053347, 38.76979393940421], [141.44518729743533, 38.76961134584594], [141.44522746801815, 38.76930824053924], [141.44523477176048, 38.76920233627545], [141.44534432789544, 38.768994179619035], [141.4453808466071, 38.76887731974176], [141.4454721433862, 38.76881888980311], [141.44565838881564, 38.76877506734912], [141.44574238185243, 38.76870202992582], [141.44589576044137, 38.768618036889016], [141.4462609475579, 38.768519436367555], [141.44656040099343, 38.768515784496394], [141.44667360899956, 38.76849387326939], [141.44698036617743, 38.768409880232625], [141.44716661160686, 38.76836240590746], [141.44737476826327, 38.7683368428093], [141.44739667949025, 38.7684317914596], [141.44730173083997, 38.768534043852235], [141.44715930786452, 38.76863264437367], [141.4470680110854, 38.768683770569986], [141.44690732875412, 38.768734896766304], [141.4466809127419, 38.76878237109147], [141.446417978018, 38.768884623484084], [141.44631937749654, 38.76895035716506], [141.44600531657633, 38.76903800207302], [141.44557074390767, 38.76914025446564], [141.44547579525738, 38.76918772879078], [141.4453991059629, 38.76918772879078], [141.44522769626005, 38.769305958119745]]}, "properties": {"id": 1}}]}