{"type": "FeatureCollection", "features": [{"type": "Feature", "geometry": {"type": "Polygon", "coordinates": [[[141.44469442150918, 38.76963352076253], [141.44460320212997, 38.76939852151103], [141.44460320212997, 38.76939852151103], [141.4446483339272, 38.76901817298996], [141.44493, 38.76874], [141.445176666667, 38.7682816666667], [141.445223333333, 38.767915], [141.444976666667, 38.767485], [141.44493655987225, 38.76728097789494], [141.44529592830867, 38.767056270602886], [141.445391666667, 38.76662], [141.44596997269804, 38.76639101836122], [141.446291666667, 38.7666033333333], [141.44674630117362, 38.76661116449447], [141.4470132571672, 38.76663304208987], [141.44770975894278, 38.76650536633675], [141.44878690767555, 38.7667704805912], [141.44906717665367, 38.766046561665604], [141.44857707588585, 38.76565344460308], [141.44857222325695, 38.76530814087891], [141.44755720531646, 38.76519893132509], [141.44711173596139, 38.76504147162], [141.44635435096362, 38.76478218295766], [141.4457255185674, 38.76464904503512], [141.44554368974372, 38.76452537741946], [141.44484189120624, 38.76442840388179], [141.44440605300696, 38.76472161700534], [141.4439374431466, 38.764895891173026], [141.44371904953934, 38.765349623116485], [141.44340184688915, 38.76555198866443], [141.442972086343, 38.76546885193466], [141.44290672301557, 38.7657976890586], [141.44277966619777, 38.766099049970435], [141.44228050247497, 38.76654514931437], [141.44153833180786, 38.76667044484668], [141.44107809724417, 38.767319371905856], [141.4405894312112, 38.767448396927996], [141.44041918056166, 38.76770494504147], [141.44049331154, 38.76821009450015], [141.4411374333874, 38.76820553932215], [141.44147094398076, 38.76834014513448], [141.44185454179717, 38.7683367330903], [141.44231666685238, 38.76845490219964], [141.44261291715742, 38.768631148831034], [141.44304905444625, 38.7691129964285], [141.44320921834048, 38.76938625471541], [141.44331178723897, 38.76938377351477], [141.44341635603942, 38.76951882064252], [141.4436231190168, 38.769589082612285], [141.44378618135073, 38.76988014544285], [141.44396396462807, 38.770041229117936], [141.44414695159622, 38.77009290198936], [141.44450581987985, 38.77000765393198], [141.44469442150918, 38.76963352076253]]]}, "properties": {"id": null}}]}